CCSDS_OMM_VERS = 2.0
CREATION_DATE  = 
ORIGINATOR     = 

OBJECT_NAME    = STARLINK-36925
OBJECT_ID      = 2026-041C
CENTER_NAME    = EARTH
REF_FRAME      = TEME
TIME_SYSTEM    = UTC
MEAN_ELEMENT_THEORY = SGP/SGP4

EPOCH          = 2026-03-07T14:00:01.000224
MEAN_MOTION    = 15.97923890
ECCENTRICITY   = .00005746
INCLINATION    = 53.1595
RA_OF_ASC_NODE = 73.0485
ARG_OF_PERICENTER = 65.1721
MEAN_ANOMALY   = 173.0617

EPHEMERIS_TYPE = 0
CLASSIFICATION_TYPE = U
NORAD_CAT_ID   = 68042
ELEMENT_SET_NO = 999
REV_AT_EPOCH   = 203
BSTAR          = -.31046749E-2
MEAN_MOTION_DOT = -.1445757E-1
MEAN_MOTION_DDOT = .63513314E-3

CCSDS_OMM_VERS = 2.0
CREATION_DATE  = 
ORIGINATOR     = 

OBJECT_NAME    = STARLINK-36902
OBJECT_ID      = 2026-041D
CENTER_NAME    = EARTH
REF_FRAME      = TEME
TIME_SYSTEM    = UTC
MEAN_ELEMENT_THEORY = SGP/SGP4

EPOCH          = 2026-03-07T14:00:01.000224
MEAN_MOTION    = 15.98151772
ECCENTRICITY   = .00006346
INCLINATION    = 53.1597
RA_OF_ASC_NODE = 73.0428
ARG_OF_PERICENTER = 63.9101
MEAN_ANOMALY   = 176.9511

EPHEMERIS_TYPE = 0
CLASSIFICATION_TYPE = U
NORAD_CAT_ID   = 68043
ELEMENT_SET_NO = 999
REV_AT_EPOCH   = 203
BSTAR          = -.30367632E-2
MEAN_MOTION_DOT = -.1432402E-1
MEAN_MOTION_DDOT = .6259444E-3

CCSDS_OMM_VERS = 2.0
CREATION_DATE  = 
ORIGINATOR     = 

OBJECT_NAME    = STARLINK-36966
OBJECT_ID      = 2026-041E
CENTER_NAME    = EARTH
REF_FRAME      = TEME
TIME_SYSTEM    = UTC
MEAN_ELEMENT_THEORY = SGP/SGP4

EPOCH          = 2026-03-07T14:00:01.000224
MEAN_MOTION    = 15.98408684
ECCENTRICITY   = .00005369
INCLINATION    = 53.1595
RA_OF_ASC_NODE = 73.0367
ARG_OF_PERICENTER = 58.0657
MEAN_ANOMALY   = 185.7627

EPHEMERIS_TYPE = 0
CLASSIFICATION_TYPE = U
NORAD_CAT_ID   = 68044
ELEMENT_SET_NO = 999
REV_AT_EPOCH   = 203
BSTAR          = -.29817314E-2
MEAN_MOTION_DOT = -.142687E-1
MEAN_MOTION_DDOT = .62322151E-3

CCSDS_OMM_VERS = 2.0
CREATION_DATE  = 
ORIGINATOR     = 

OBJECT_NAME    = STARLINK-36864
OBJECT_ID      = 2026-041F
CENTER_NAME    = EARTH
REF_FRAME      = TEME
TIME_SYSTEM    = UTC
MEAN_ELEMENT_THEORY = SGP/SGP4

EPOCH          = 2026-03-07T14:00:01.000224
MEAN_MOTION    = 15.98296937
ECCENTRICITY   = .00005424
INCLINATION    = 53.1595
RA_OF_ASC_NODE = 73.0396
ARG_OF_PERICENTER = 59.9787
MEAN_ANOMALY   = 182.5698

EPHEMERIS_TYPE = 0
CLASSIFICATION_TYPE = U
NORAD_CAT_ID   = 68045
ELEMENT_SET_NO = 999
REV_AT_EPOCH   = 203
BSTAR          = -.30146362E-2
MEAN_MOTION_DOT = -.143353E-1
MEAN_MOTION_DDOT = .62780854E-3

CCSDS_OMM_VERS = 2.0
CREATION_DATE  = 
ORIGINATOR     = 

OBJECT_NAME    = STARLINK-36321
OBJECT_ID      = 2026-041G
CENTER_NAME    = EARTH
REF_FRAME      = TEME
TIME_SYSTEM    = UTC
MEAN_ELEMENT_THEORY = SGP/SGP4

EPOCH          = 2026-03-07T14:00:01.000224
MEAN_MOTION    = 15.98658547
ECCENTRICITY   = .00006825
INCLINATION    = 53.1595
RA_OF_ASC_NODE = 73.0306
ARG_OF_PERICENTER = 58.7067
MEAN_ANOMALY   = 188.1168

EPHEMERIS_TYPE = 0
CLASSIFICATION_TYPE = U
NORAD_CAT_ID   = 68046
ELEMENT_SET_NO = 999
REV_AT_EPOCH   = 203
BSTAR          = -.29227084E-2
MEAN_MOTION_DOT = -.1418502E-1
MEAN_MOTION_DDOT = .61819153E-3

CCSDS_OMM_VERS = 2.0
CREATION_DATE  = 
ORIGINATOR     = 

OBJECT_NAME    = STARLINK-36181
OBJECT_ID      = 2026-041H
CENTER_NAME    = EARTH
REF_FRAME      = TEME
TIME_SYSTEM    = UTC
MEAN_ELEMENT_THEORY = SGP/SGP4

EPOCH          = 2026-03-07T14:00:01.000224
MEAN_MOTION    = 15.98535540
ECCENTRICITY   = .00007148
INCLINATION    = 53.1595
RA_OF_ASC_NODE = 73.0338
ARG_OF_PERICENTER = 67.4775
MEAN_ANOMALY   = 177.8331

EPHEMERIS_TYPE = 0
CLASSIFICATION_TYPE = U
NORAD_CAT_ID   = 68047
ELEMENT_SET_NO = 999
REV_AT_EPOCH   = 191
BSTAR          = -.29628819E-2
MEAN_MOTION_DOT = -.1427977E-1
MEAN_MOTION_DDOT = .62494651E-3

CCSDS_OMM_VERS = 2.0
CREATION_DATE  = 
ORIGINATOR     = 

OBJECT_NAME    = STARLINK-36318
OBJECT_ID      = 2026-041J
CENTER_NAME    = EARTH
REF_FRAME      = TEME
TIME_SYSTEM    = UTC
MEAN_ELEMENT_THEORY = SGP/SGP4

EPOCH          = 2026-03-07T14:00:01.000224
MEAN_MOTION    = 15.98782169
ECCENTRICITY   = .00005219
INCLINATION    = 53.1596
RA_OF_ASC_NODE = 73.0279
ARG_OF_PERICENTER = 72.2844
MEAN_ANOMALY   = 175.8912

EPHEMERIS_TYPE = 0
CLASSIFICATION_TYPE = U
NORAD_CAT_ID   = 68048
ELEMENT_SET_NO = 999
REV_AT_EPOCH   = 203
BSTAR          = -.29149846E-2
MEAN_MOTION_DOT = -.1424532E-1
MEAN_MOTION_DDOT = .62382625E-3

CCSDS_OMM_VERS = 2.0
CREATION_DATE  = 
ORIGINATOR     = 

OBJECT_NAME    = STARLINK-36885
OBJECT_ID      = 2026-041K
CENTER_NAME    = EARTH
REF_FRAME      = TEME
TIME_SYSTEM    = UTC
MEAN_ELEMENT_THEORY = SGP/SGP4

EPOCH          = 2026-03-07T14:00:01.000224
MEAN_MOTION    = 15.99045148
ECCENTRICITY   = .00006159
INCLINATION    = 53.1594
RA_OF_ASC_NODE = 73.0211
ARG_OF_PERICENTER = 61.8033
MEAN_ANOMALY   = 189.6043

EPHEMERIS_TYPE = 0
CLASSIFICATION_TYPE = U
NORAD_CAT_ID   = 68049
ELEMENT_SET_NO = 999
REV_AT_EPOCH   = 203
BSTAR          = -.28530057E-2
MEAN_MOTION_DOT = -.1415208E-1
MEAN_MOTION_DDOT = .61811117E-3

CCSDS_OMM_VERS = 2.0
CREATION_DATE  = 
ORIGINATOR     = 

OBJECT_NAME    = STARLINK-36945
OBJECT_ID      = 2026-041L
CENTER_NAME    = EARTH
REF_FRAME      = TEME
TIME_SYSTEM    = UTC
MEAN_ELEMENT_THEORY = SGP/SGP4

EPOCH          = 2026-03-07T14:00:01.000224
MEAN_MOTION    = 15.98911590
ECCENTRICITY   = .00005527
INCLINATION    = 53.1595
RA_OF_ASC_NODE = 73.0244
ARG_OF_PERICENTER = 71.2139
MEAN_ANOMALY   = 178.6134

EPHEMERIS_TYPE = 0
CLASSIFICATION_TYPE = U
NORAD_CAT_ID   = 68050
ELEMENT_SET_NO = 999
REV_AT_EPOCH   = 203
BSTAR          = -.28731372E-2
MEAN_MOTION_DOT = -.1414494E-1
MEAN_MOTION_DDOT = .61666096E-3

CCSDS_OMM_VERS = 2.0
CREATION_DATE  = 
ORIGINATOR     = 

OBJECT_NAME    = STARLINK-35911
OBJECT_ID      = 2026-041M
CENTER_NAME    = EARTH
REF_FRAME      = TEME
TIME_SYSTEM    = UTC
MEAN_ELEMENT_THEORY = SGP/SGP4

EPOCH          = 2026-03-07T14:00:01.000224
MEAN_MOTION    = 15.99184419
ECCENTRICITY   = .00005704
INCLINATION    = 53.1595
RA_OF_ASC_NODE = 73.0178
ARG_OF_PERICENTER = 68.9398
MEAN_ANOMALY   = 184.1640

EPHEMERIS_TYPE = 0
CLASSIFICATION_TYPE = U
NORAD_CAT_ID   = 68051
ELEMENT_SET_NO = 999
REV_AT_EPOCH   = 199
BSTAR          = -.28371505E-2
MEAN_MOTION_DOT = -.1418422E-1
MEAN_MOTION_DDOT = .62160697E-3

CCSDS_OMM_VERS = 2.0
CREATION_DATE  = 
ORIGINATOR     = 

OBJECT_NAME    = STARLINK-35808
OBJECT_ID      = 2026-041N
CENTER_NAME    = EARTH
REF_FRAME      = TEME
TIME_SYSTEM    = UTC
MEAN_ELEMENT_THEORY = SGP/SGP4

EPOCH          = 2026-03-07T14:00:01.000224
MEAN_MOTION    = 15.99305669
ECCENTRICITY   = .00005756
INCLINATION    = 53.1591
RA_OF_ASC_NODE = 73.0144
ARG_OF_PERICENTER = 59.5471
MEAN_ANOMALY   = 195.0160

EPHEMERIS_TYPE = 0
CLASSIFICATION_TYPE = U
NORAD_CAT_ID   = 68052
ELEMENT_SET_NO = 999
REV_AT_EPOCH   = 199
BSTAR          = -.27934603E-2
MEAN_MOTION_DOT = -.1406362E-1
MEAN_MOTION_DDOT = .61277283E-3

CCSDS_OMM_VERS = 2.0
CREATION_DATE  = 
ORIGINATOR     = 

OBJECT_NAME    = STARLINK-36919
OBJECT_ID      = 2026-041P
CENTER_NAME    = EARTH
REF_FRAME      = TEME
TIME_SYSTEM    = UTC
MEAN_ELEMENT_THEORY = SGP/SGP4

EPOCH          = 2026-03-07T14:00:01.000224
MEAN_MOTION    = 15.99447385
ECCENTRICITY   = .00006575
INCLINATION    = 53.1593
RA_OF_ASC_NODE = 73.0112
ARG_OF_PERICENTER = 65.9559
MEAN_ANOMALY   = 190.2209

EPHEMERIS_TYPE = 0
CLASSIFICATION_TYPE = U
NORAD_CAT_ID   = 68053
ELEMENT_SET_NO = 999
REV_AT_EPOCH   = 203
BSTAR          = -.28100384E-2
MEAN_MOTION_DOT = -.1425877E-1
MEAN_MOTION_DDOT = .62936967E-3

