STARLINK-36925          
1 68042U 26041C   26066.58334491 -.01445757  63513-3 -31047-2 0  9993
2 68042  53.1595  73.0485 0000574  65.1721 173.0617 15.97923890  2038
STARLINK-36902          
1 68043U 26041D   26066.58334491 -.01432402  62594-3 -30368-2 0  9990
2 68043  53.1597  73.0428 0000634  63.9101 176.9511 15.98151772  2031
STARLINK-36966          
1 68044U 26041E   26066.58334491 -.01426870  62322-3 -29817-2 0  9999
2 68044  53.1595  73.0367 0000536  58.0657 185.7627 15.98408684  2037
STARLINK-36864          
1 68045U 26041F   26066.58334491 -.01433530  62781-3 -30146-2 0  9997
2 68045  53.1595  73.0396 0000542  59.9787 182.5698 15.98296937  2030
STARLINK-36321          
1 68046U 26041G   26066.58334491 -.01418502  61819-3 -29227-2 0  9999
2 68046  53.1595  73.0306 0000682  58.7067 188.1168 15.98658547  2038
STARLINK-36181          
1 68047U 26041H   26066.58334491 -.01427977  62495-3 -29629-2 0  9993
2 68047  53.1595  73.0338 0000714  67.4775 177.8331 15.98535540  1913
STARLINK-36318          
1 68048U 26041J   26066.58334491 -.01424532  62383-3 -29150-2 0  9993
2 68048  53.1596  73.0279 0000521  72.2844 175.8912 15.98782169  2034
STARLINK-36885          
1 68049U 26041K   26066.58334491 -.01415208  61811-3 -28530-2 0  9990
2 68049  53.1594  73.0211 0000615  61.8033 189.6043 15.99045148  2035
STARLINK-36945          
1 68050U 26041L   26066.58334491 -.01414494  61666-3 -28731-2 0  9999
2 68050  53.1595  73.0244 0000552  71.2139 178.6134 15.98911590  2037
STARLINK-35911          
1 68051U 26041M   26066.58334491 -.01418422  62161-3 -28372-2 0  9997
2 68051  53.1595  73.0178 0000570  68.9398 184.1640 15.99184419  1995
STARLINK-35808          
1 68052U 26041N   26066.58334491 -.01406362  61277-3 -27935-2 0  9999
2 68052  53.1591  73.0144 0000575  59.5471 195.0160 15.99305669  1998
STARLINK-36919          
1 68053U 26041P   26066.58334491 -.01425877  62937-3 -28100-2 0  9991
2 68053  53.1593  73.0112 0000657  65.9559 190.2209 15.99447385  2034
